FENGYUN 3C              
1 39260U 13052A   22298.22223917  .00000091  00000+0  67190-4 0  9998
2 39260  98.4470 319.7193 0009933 260.2050  99.8003 14.15952947470283
METEOR-M 2              
1 40069U 14037A   22297.69775328  .00000024  00000+0  30458-4 0  9992
2 40069  98.4303 309.5938 0004883 316.2457  43.8323 14.20723214430215
HIMAWARI-8              
1 40267U 14060A   22297.74933954 -.00000263  00000+0  00000+0 0  9996
2 40267   0.0385 129.1956 0001187 107.8548 206.5344  1.00273151 29409
FENGYUN 2G              
1 40367U 14090A   22298.09979535 -.00000284  00000+0  00000+0 0  9997
2 40367   2.2564  88.0928 0002818 203.5802 237.1164  1.00262492 28690
METEOSAT-11 (MSG-4)     
1 40732U 15034A   22297.72134819  .00000013  00000+0  00000+0 0  9998
2 40732   0.5731  74.8319 0000371 101.4845 116.6966  1.00280279 26675
ELEKTRO-L 2             
1 41105U 15074A   22297.86191528 -.00000099  00000+0  00000+0 0  9997
2 41105   3.3084  86.5772 0002900 129.3297 113.2239  1.00272357 25162
HIMAWARI-9              
1 41836U 16064A   22298.17980309 -.00000262  00000+0  00000+0 0  9998
2 41836   0.0122 191.0586 0000564  47.6282   0.3786  1.00270758 21954
GOES 16                 
1 41866U 16071A   22297.40396806 -.00000236  00000+0  00000+0 0  9998
2 41866   0.0550 279.9864 0000554 334.1903 208.8743  1.00272757 21768
FENGYUN 4A              
1 41882U 16077A   22297.88563380 -.00000318  00000+0  00000+0 0  9998
2 41882   0.1597 286.7443 0004471 114.4150  55.6249  1.00274620 21638
CYGFM05                 
1 41884U 16078A   22297.85800028  .00003592  00000+0  17826-3 0  9995
2 41884  34.9546 115.5083 0014170 174.1997 185.8881 15.17100512324542
CYGFM04                 
1 41885U 16078B   22297.86401302  .00003901  00000+0  19048-3 0  9991
2 41885  34.9482 103.9680 0012938 192.8534 167.1850 15.17649465324656
CYGFM02                 
1 41886U 16078C   22297.78578743  .00004011  00000+0  19558-3 0  9996
2 41886  34.9570 106.7075 0013479 185.6182 174.4381 15.17686732324562
CYGFM01                 
1 41887U 16078D   22298.20565160  .00003345  00000+0  16705-3 0  9994
2 41887  34.9512 115.9419 0014647 176.4416 183.6402 15.16903597324565
CYGFM08                 
1 41888U 16078E   22297.88640638  .00003686  00000+0  18139-3 0  9993
2 41888  34.9484 109.9654 0014014 186.6354 173.4174 15.17389730324561
CYGFM06                 
1 41889U 16078F   22298.15946634  .00003419  00000+0  16694-3 0  9998
2 41889  34.9564 103.0316 0012490 189.5925 170.4550 15.17704421324690
CYGFM07                 
1 41890U 16078G   22298.14962430  .00003170  00000+0  15522-3 0  9994
2 41890  34.9502 101.9529 0012415 194.3229 165.7133 15.17634373324697
CYGFM03                 
1 41891U 16078H   22297.75357076  .00003607  00000+0  17643-3 0  9996
2 41891  34.9535 104.9289 0011850 188.6529 171.3980 15.17635926324475
FENGYUN 3D              
1 43010U 17072A   22298.14430891  .00000092  00000+0  65214-4 0  9990
2 43010  98.8281 242.1669 0000875 227.8951 132.2145 14.19234156256164
NOAA 20                 
1 43013U 17073A   22298.12626932  .00000045  00000+0  41926-4 0  9997
2 43013  98.7261 234.6948 0001567  72.2789 287.8558 14.19553055255627
GOES 17                 
1 43226U 18022A   22297.69396727  .00000110  00000+0  00000+0 0  9991
2 43226   0.0537 279.1108 0000265 302.6243 283.8696  1.00272698 17077
FENGYUN 2H              
1 43491U 18050A   22298.09578411 -.00000113  00000+0  00000+0 0  9997
2 43491   1.4709  94.6278 0003636  68.1032 344.3561  1.00271428 16163
METOP-C                 
1 43689U 18087A   22298.16573716  .00000092  00000+0  62018-4 0  9994
2 43689  98.7190 356.0694 0003631  39.2044 320.9395 14.21479452205731
GEO-KOMPSAT-2A          
1 43823U 18100A   22298.03955521 -.00000331  00000+0  00000+0 0  9999
2 43823   0.0191  82.0049 0001340  48.9024  45.0009  1.00268131 14310
METEOR-M2 2             
1 44387U 19038A   22298.16684550  .00000049  00000+0  40832-4 0  9998
2 44387  98.7396 258.0010 0000200 248.2722 111.8433 14.23726590171868
FENGYUN 3E              
1 49008U 21062A   22298.04632137  .00000020  00000+0  29938-4 0  9997
2 49008  98.7172 297.9932 0001733  12.9369 347.1867 14.19742969 67700
GOES 18                 
1 51850U 22021A   22298.23756028  .00000109  00000+0  00000+0 0  9990
2 51850   0.0335  88.5802 0002519 137.5781 116.0712  1.00274517  2458
YAOGAN-36 01A           
1 53943U 22120A   22298.45561295  .00008716  00000+0  36284-3 0  9998
2 53943  34.9980   3.4274 0004656 237.5053 239.7636 15.22998108  4415
CZ-2D DEB               
1 53944U 22120B   22298.22550412  .00025063  00000+0  94106-3 0  9994
2 53944  34.9984   4.5602 0007813 163.5285 248.9611 15.26255683  4389
CZ-2D R/B               
1 53945U 22120C   22298.23223991  .00022476  00000+0  85502-3 0  9990
2 53945  34.9974   4.6084 0007547 156.7927 259.0537 15.25843181  4357
YAOGAN-36 01B           
1 53946U 22120D   22297.97846065 -.00051901  00000+0 -21381-2 0  9995
2 53946  34.9989   6.4462 0006313 150.8701 219.0520 15.23450896  4307
YAOGAN-36 01C           
1 53947U 22120E   22298.31711543 -.00029822  00000+0 -12403-2 0  9999
2 53947  34.9945   4.2502 0006333 280.2029 174.8835 15.23013953  4399
2022-121A               
1 53948U 22121A   22298.13591203  .00005937  00000+0  29367-3 0  9997
2 53948  97.4539 318.3531 0013248 163.0844 283.1323 15.18119067  4270
2022-121B               
1 53949U 22121B   22298.13274583  .00004419  00000+0  21881-3 0  9994
2 53949  97.4516 318.3488 0012108 167.0414 278.9583 15.18233598  4274
2022-121C               
1 53950U 22121C   22298.12804343  .00003888  00000+0  19160-3 0  9994
2 53950  97.4547 318.3659 0013569 173.4479 272.2386 15.18463907  4271
SELFIESAT               
1 53951U 22057BA  22297.81027749  .00008432  00000+0  47161-3 0  9997
2 53951  97.5288  50.7156 0011399  80.2479 280.0039 15.13663508 22993
SES-20                  
1 53960U 22123A   22297.33452710  .00000124  00000+0  00000+0 0  9995
2 53960   0.0750 263.9420 0003238  82.5250  25.5010  1.00270074   184
SES-21                  
1 53961U 22123B   22297.70000000  .00000129  00000+0  00000+0 0  9993
2 53961   0.0600 305.7140 0003341 125.6080  70.9180  1.00281010   205
ATLAS 5 CENTAUR R/B     
1 53962U 22123C   22296.71510503 -.00000126  00000+0  00000+0 0  9996
2 53962   1.8767 165.3215 0290089 199.9751 159.5962  1.07594256   206
CREW DRAGON 5           
1 53963U 22124A   22297.66831456  .00011193  00000+0  20597-3 0  9998
2 53963  51.6434  55.1194 0005802   9.7718 122.7613 15.49689577365268
STARLINK-4633           
1 53964U 22125A   22297.91667824 -.01190046  00000+0 -15140-1 0  9998
2 53964  53.2177 358.0083 0001431  42.6979  38.9134 15.61536214  1303
STARLINK-4578           
1 53965U 22125B   22297.91667824 -.01188151  00000+0 -15091-1 0  9998
2 53965  53.2178 358.0056 0001596  34.4813  48.3421 15.61572450  1309
STARLINK-4635           
1 53966U 22125C   22298.16667824 -.01225729  00000+0 -15969-1 0  9994
2 53966  53.2178 356.7875 0001705  31.9909  18.1669 15.61008515  3413
STARLINK-4634           
1 53967U 22125D   22297.91667824 -.01189626  00000+0 -15056-1 0  9999
2 53967  53.2178 358.0000 0001498  39.3550  46.1959 15.61668008  1300
STARLINK-4629           
1 53968U 22125E   22297.91667824 -.01189760  00000+0 -14977-1 0  9990
2 53968  53.2177 357.9922 0001678  33.1541  56.3724 15.61804096  1305
STARLINK-4468           
1 53969U 22125F   22297.91667824 -.01188720  00000+0 -15015-1 0  9990
2 53969  53.2178 357.9972 0001425  44.8008  42.1439 15.61716813  1304
STARLINK-4567           
1 53970U 22125G   22298.25001157  .00002463  00000+0  21986-4 0  9994
2 53970  53.2183 356.1662 0002744  13.8175 257.3479 15.73185542  3426
STARLINK-4639           
1 53971U 22125H   22297.91667824 -.01189114  00000+0 -14995-1 0  9997
2 53971  53.2178 357.9946 0001592  37.3866  50.8290 15.61758789  1301
STARLINK-5157           
1 53972U 22125J   22298.16667824  .00073024  00000+0  52160-3 0  9993
2 53972  53.2186 356.5767 0002572  12.8517 146.9925 15.73134963  3418
STARLINK-5156           
1 53973U 22125K   22298.25001157 -.01201356  00000+0 -15618-1 0  9994
2 53973  53.2178 356.3682 0001461  56.6220 109.0928 15.61007683  3426
STARLINK-5159           
1 53974U 22125L   22298.16667824  .00104365  00000+0  74036-3 0  9994
2 53974  53.2192 356.2685 0001791  44.2358 269.2953 15.73150813  3419
STARLINK-5137           
1 53975U 22125M   22297.91667824  .00063476  00000+0  45481-3 0  9996
2 53975  53.2180 357.8146 0003017   8.0030 174.6043 15.73117394  1306
STARLINK-5134           
1 53976U 22125N   22297.91667824  .00128865  00000+0  91224-3 0  9997
2 53976  53.2196 357.7642 0001752  34.8799 174.4513 15.73105356  3371
STARLINK-5094           
1 53977U 22125P   22297.91667824  .00037881  00000+0  27396-3 0  9994
2 53977  53.2181 357.8112 0003431  15.4631 168.9454 15.73121988  1307
STARLINK-5148           
1 53978U 22125Q   22297.91667824  .00047122  00000+0  33858-3 0  9994
2 53978  53.2182 357.8079 0002416  24.6159 161.6323 15.73177781  1307
STARLINK-5123           
1 53979U 22125R   22297.91667824  .00039766  00000+0  28722-3 0  9994
2 53979  53.2185 357.8101 0002839  10.5710 174.4686 15.73130831  1302
STARLINK-5133           
1 53980U 22125S   22297.91667824  .00092927  00000+0  66085-3 0  9998
2 53980  53.2189 357.8075 0003050  22.4669 164.2840 15.73139020  1307
STARLINK-5149           
1 53981U 22125T   22297.91667824  .00043398  00000+0  31300-3 0  9999
2 53981  53.2210 357.7481 0002251  16.5307 200.8985 15.73126086  1303
STARLINK-5120           
1 53982U 22125U   22298.16667824  .00071472  00000+0  50980-3 0  9997
2 53982  53.2183 356.5578 0002578  10.3420 159.0032 15.73176506  3411
STARLINK-5103           
1 53983U 22125V   22298.16667824  .00028944  00000+0  21025-3 0  9992
2 53983  53.2174 356.5290 0002879  24.6036 158.7300 15.73161840  3417
